#dP2023 10  1  6  0  0.00000000      96 __u+U ITR00 EXT  IAC
## 2282  21600.00000000   900.00000000 60218 0.2500000000000
+  120   C06C07C08C09C10C11C12C13C14C16C19C20C21C22C23C24C25
+        C26C27C28C29C30C32C33C34C35C36C37C38C39C40C41C42C43
+        C44C45C46E02E03E04E05E07E08E09E10E11E12E13E14E15E18
+        E19E21E24E25E26E27E30E31E33E34E36G01G02G03G04G05G06
+        G07G08G09G10G11G12G13G14G15G16G17G18G19G20G21G22G23
+        G24G25G26G27G28G29G30G31G32J02J03J04R01R02R03R04R05
+        R07R08R09R11R12R13R14R15R16R17R18R19R20R21R22R24R25
+        R26  0  0  0  0  0  0  0  0  0  0  0  0  0  0  0  0
++         9  9 10  8 10 10 10 10 10 10  8  8  9  7  9  9  9
++         8  8  9  8  9  9 10  9  9  9  9  9 10 10  9 10  9
++         8  8 10  8  8  9  8  8  8  8  9  8  9  8  8  8  8
++         9  8  9  9  8  8  8  8  9  8  8  8  9  8  8  8  8
++         9  8  8  8  9  8  8  8  8  9  8  8  8  8  8  8  8
++         8  8  9  8 10  8  9  8  8  9  8  9  8  8  8  9  9
++         8  9  9  9  9  9  8 10  9  8  9  9  9 10 10  8 11
++         8  0  0  0  0  0  0  0  0  0  0  0  0  0  0  0  0
%c M  cc GPS ccc cccc cccc cccc cccc ccccc ccccc ccccc ccccc
%c cc cc ccc ccc cccc cccc cccc cccc ccccc ccccc ccccc ccccc
%f  0.0000000  0.000000000  0.00000000000  0.000000000000000
%f  0.0000000  0.000000000  0.00000000000  0.000000000000000
%i    0    0    0    0      0      0      0      0         0
%i    0    0    0    0      0      0      0      0         0
/* IAC                                ULTRA-RAPID PREDICTION
/* S/V CLOCKS ARE ALIGNED TO GNSS TIME                      
/* G:C1WC2W R:C1PC2P E:C1XC5X C:C2IC6I J:C1CC2S             
/* PCV:IGS20_2280 OL/AL:FES2004  NONE     YN ORB:CoN CLK:CoN
*  2023 10 01 17  0  0.00000000
PC06  -5317.609492  40344.578336 -10476.994807     37.823446
PC07  -8422.702682  26213.807779  32024.833962    -91.089528
PC08 -20798.923930  29671.710556 -21765.405993    318.564175
PC09  -1675.096634  41675.310283  -2983.218322     96.288786
PC10    972.088199  28640.995726  31366.468913   -196.910146
PC11 -13725.002580   7543.207091  23171.562593    181.325635
PC12 -16784.453557 -13281.956990  17939.337852    915.093212
PC13 -14171.303279  30286.664432 -25726.413087    360.812813
PC14 -23956.837215   4787.857784 -13433.508230    507.227174
PC16  -8589.149049  37940.000559 -15616.382302   -105.652030
PC19  16655.925632 -10499.783226  19796.672387   -970.867896
PC20  27126.476864    649.674898   6576.792568    238.968270
PC21 -22014.536301 -12418.303140  11810.712882   -970.103750
PC22  -3967.522084 -16227.089060  22337.412328   -284.260771
PC23  -6311.112203  23101.676168  14338.614065   -856.018241
PC24 -21160.863605   5218.639578 -17453.500519    449.996183
PC25 -18510.320907  20851.182285  -1430.618670    223.402452
PC26 -11543.216074 -11576.636564 -22629.232098   -185.578028
PC27  15166.344250  20553.634768 -11250.225874    207.249498
PC28   5563.407523  26941.441466   4722.610586    155.747611
PC29   8406.463234 -17463.517177 -20077.471006    181.979165
PC30  17322.591270   2820.770210 -21697.310892     -5.776277
PC32  22049.449951  12295.049158 -11895.889482   -528.641750
PC33 -16675.981317  10573.889774 -19720.369248   -960.682250
PC34 -17042.544676  -1236.900271  22056.222962    271.673785
PC35  -6535.313595 -26733.144108  -4732.465639    534.620006
PC36  19362.414732 -19963.999357   2250.065552   -199.779879
PC37  10584.701786  12575.986408  22566.572741   -841.397597
PC38 -25727.467874  30576.852849 -13707.853890    108.378565
PC39  -9923.268251  35169.144551 -20783.640775     -5.028470
PC40 -12523.153341  19768.351469  35087.922859    -38.521170
PC41   3200.881046  16189.996412 -22459.774170   -874.985718
PC42 -27370.986119  -1613.824199  -5097.225650   -532.672189
PC43  -9108.845239  16709.378385  20398.185365     42.139271
PC44 -15921.519637 -20117.170278  10998.403369    248.478043
PC45   5904.230065 -22891.982456 -14805.512391    -31.538919
PC46  21376.386633  -6382.453139  16739.061288    -88.524262
PE02   7875.190593 -18084.078417 -22063.574366     66.977309
PE03  -3534.802537 -22069.237551  19392.068292    -61.101250
PE04  19572.969072  21924.774543  -3519.411719   -224.551549
PE05  14553.711380  -9397.714617  23997.528513     23.479733
PE07 -24252.096778  -9172.633513 -14272.701308    -78.916897
PE08 -19322.877738 -22055.542341   4000.635264   -154.813709
PE09  24231.105972   9351.656610  14204.486247   -176.088094
PE10  12809.904113  12151.896863 -23766.424020   -567.899918
PE11  16351.319364    199.828882 -24682.630919   3024.478435
PE12   7753.647786  21089.110044 -19269.333074   -719.465265
PE13 -16125.070115   -998.825560  24805.948733    -19.737368
PE14 -15721.137739   4800.032777  17618.467398    356.293765
PE15  -7459.982166 -21417.796895  19023.757770    -57.700102
PE18  23613.094992   -743.203004 -21549.168814    594.971197
PE19   1096.512337  20997.615551 -20832.303416  -1515.568488
PE21 -24614.377156  13725.888488   9058.162757   -555.860616
PE24  27722.397772   -609.176007  10321.356887   -351.994236
PE25  24834.578977 -13538.901285  -8707.346401     -2.611001
PE26 -15141.670763  20262.692907  15387.470045    238.697162
PE27 -27898.095273   1139.991096  -9833.867780   -163.796889
PE30 -14295.239074 -12287.488044 -22828.790775   -544.926669
PE31  14698.632715  11990.257300  22735.087426     -6.464307
PE33  -5852.558632  28982.691257  -1569.396268     -0.028929
PE34   5399.911833 -29010.794280   2183.405979    -70.035928
PE36  15233.364903 -19700.004977 -15995.644627   -123.927729
PG01 -13859.633973  17980.771335  13154.748085    164.359567
PG02 -15085.903031  11909.863910  18758.137079   -547.327906
PG03 -21432.897260  12564.868082  -9381.356204   -104.277001
PG04 -11225.672667  10191.150649 -21799.836676    172.106176
PG05  25670.449791  -4610.742072  -5473.616762   -144.847902
PG06   7421.139429  18008.705325 -17949.597225    539.649287
PG07  -4868.788985  25776.547719   2308.372795     52.079789
PG08 -18682.631884    976.920429  18930.037068   -144.977808
PG09  -1855.939653  17495.767792 -19970.170423    -44.512978
PG10  -8632.308536 -12770.659291  21850.729819    -55.608871
PG11  14172.801247   5229.295918 -21829.743417   -395.150196
PG12  23730.532459  -9839.111848  -6870.347209   -431.042476
PG13  19999.753327   9257.956026  14780.362436    579.049886
PG14   4588.061974  14836.091920  21573.647822    201.369322
PG15  17982.140458  -4096.426502  18710.976104     82.894469
PG16 -24979.089353  -2129.342102  -9742.850052   -445.861202
PG17  11281.652424  22159.990976   9599.033767    723.872140
PG18   4287.482497 -25817.703683   3918.540509   -435.258117
PG19  16812.770142  20791.715968    503.481793    379.066192
PG20  21234.124866   2208.639775 -15640.467266    409.036997
PG21 -15577.682744   7837.222431  20276.444142    147.743487
PG22  11534.785334  12536.655405  20765.620895    111.131762
PG23   5595.853472 -16160.284385  20278.642502     76.271845
PG24  14571.689669 -14175.751949  16484.978196   -334.672992
PG25  12967.385802 -16265.858527 -16676.926719    470.595698
PG26 -18844.784026  -7062.258645 -17629.704138    225.634550
PG27 -21891.929348 -11035.238900  10469.217701    -48.419339
PG28  -7412.340673 -19594.722175 -16351.114405    -18.153567
PG29   2998.559358 -17171.121719 -20053.347438   -609.776959
PG30   2350.210405  23876.455072  11226.061378   -482.702956
PG31 -12594.252689 -10387.501745 -21065.631022   -224.108896
PG32 -15742.932025 -20749.187652   5910.758263   -566.429403
PJ02 -31039.800269  25361.592456  18240.741542     -4.926317
PJ03 -27796.395239  25852.549199  23460.540435     -3.994473
PJ04 -29484.610444  20020.605971 -17439.362124     70.887379
PR01 -15392.405864 -13323.003327  15359.745204     66.791982
PR02 -23936.352541  -8769.713392  -1623.138052    -22.409310
PR03 -18740.759601   1418.436776 -17240.724691     86.263145
PR04  -3293.080587  10251.216141 -23101.660018    205.083107
PR05  13801.447838  13780.241733 -16418.909428    119.903465
PR07  18060.627752  -1997.338752  17908.250757     65.873359
PR08   3021.429619 -10505.854795  23099.223929    -72.760164
PR09  16620.756344  -1567.936884  19337.299575    145.280183
PR11  14253.222673 -18293.899905 -10629.546477   -181.596150
PR12  -2221.314681 -12003.578531 -22367.245936     31.875865
PR13 -15154.116933   -225.273672 -20528.190897    -39.782893
PR14 -20791.406654  13753.066859  -5345.191479     25.344796
PR15 -13384.959049  18191.135793  11874.013882     85.729414
PR16   1964.723321  12056.705664  22400.242407     19.222026
PR17  -8805.626407   9297.129065  22081.436308     21.950966
PR18  -2238.005309  22558.214112  11673.795142    104.699908
PR19   4129.790307  24960.634246  -3309.646766   -249.309284
PR20  10297.358716  11257.144168 -20422.395845   -101.015208
PR21   8541.991310 -10064.554665 -21815.335544    -42.252105
PR22   2632.623017 -23029.873996 -10625.758830     86.689514
PR24 -11196.058341 -10185.204531  20544.105503    -26.539803
PR25   9507.568852  -8840.082756 -21944.991855     30.206717
PR26   3495.429017 -10301.768895  23085.691531    -22.102111
EOF
